1 08820U 76039A   03362.12937918 -.00000007  00000-0  10000-3 0  9865
2 08820 109.8370 248.0052 0044196 260.0953  99.4807  6.38664604389446
